OBJECT_NAME,OBJECT_ID,EPOCH,MEAN_MOTION,ECCENTRICITY,INCLINATION,RA_OF_ASC_NODE,ARG_OF_PERICENTER,MEAN_ANOMALY,EPHEMERIS_TYPE,CLASSIFICATION_TYPE,NORAD_CAT_ID,ELEMENT_SET_NO,REV_AT_EPOCH,BSTAR,MEAN_MOTION_DOT,MEAN_MOTION_DDOT
LEMUR-1,2014-033AL,2026-07-11T05:01:47.209152,14.85329733,.0048123,97.7902,341.4854,1.0839,359.0472,0,U,40044,999,64903,.11416E-3,.946E-5,0
LEMUR-2-GREENBERG,2017-042N,2026-07-09T11:53:19.376160,15.32031511,.00071356,97.3831,11.0293,283.6729,76.3718,0,U,42837,999,49180,.3749711E-3,.11532E-3,0
LEMUR-2-ANDIS,2017-042P,2026-07-10T23:17:45.191616,15.35809937,.0007114,97.3678,12.7686,276.1395,83.9038,0,U,42838,999,49210,.38815E-3,.13461E-3,0
LEMUR-2-MONSON,2017-042Q,2026-07-10T11:15:45.883584,15.28674858,.00051568,97.4089,11.9359,266.7916,93.2733,0,U,42839,999,49172,.34676682E-3,.96E-4,0
LEMUR-2-FURIAUS,2017-042R,2026-07-10T17:54:39.576960,15.31036825,.000636,97.3778,10.1778,347.2297,12.8782,0,U,42840,999,49181,.4049E-3,.12077E-3,0
LEMUR-2-PETERG,2017-042S,2026-07-11T03:57:07.118208,15.34930932,.0003025,97.3994,17.2517,239.0880,121.0066,0,U,42841,999,49211,.36918E-3,.12435E-3,0
LEMUR-2-DEMBITZ,2017-042T,2026-07-10T10:32:25.711872,15.31014043,.00050513,97.3830,12.9130,296.1188,63.9533,0,U,42842,999,49190,.42317105E-3,.12615E-3,0
LEMUR-2-ZACHARY,2017-042W,2026-07-10T23:48:09.703872,15.52437029,.0002407,97.3583,24.1704,268.6387,91.4590,0,U,42845,999,49289,.5114E-3,.31231E-3,0
LEMUR-2-AMANDA-SVANTE,2021-034B,2026-07-11T03:37:09.346368,15.35790464,.0004319,97.5761,271.0917,152.1074,208.0401,0,U,48269,999,28473,.59796E-3,.20774E-3,0
LEMUR-2-SPECIAL-K,2021-034F,2026-07-09T11:36:21.286080,15.72652165,.00060947,97.5638,279.0810,220.1944,139.8869,0,U,48273,999,28518,.1370293E-2,.187516E-2,0
LEMUR-2-EMBRIONOVIS,2023-084AQ,2026-07-10T08:47:03.778944,15.38146742,.00079165,97.6309,336.4682,225.0673,134.9930,0,U,56970,999,17124,.2788E-3,.10396E-3,0
LEMUR-2-DEVERILL-M-T,2023-100F,2026-07-10T13:20:15.256032,15.40939076,.0004687,99.4467,237.0829,316.3401,43.7467,0,U,57391,999,16484,.46465E-3,.19034E-3,0
LEMUR-2-BASS,2023-174D,2026-07-11T04:44:20.983776,15.43904850,.0007846,97.3848,277.2573,90.0591,270.1556,0,U,58259,999,14906,.25589E-3,.11552E-3,0
LEMUR-2-JK0903EM1407,2023-174CJ,2026-07-11T04:31:23.057184,15.52923968,.0003998,97.3920,283.3557,46.6877,313.4709,0,U,58336,999,14945,.29037E-3,.17977E-3,0
LEMUR-2-MJR092620,2023-174CN,2026-07-11T04:22:45.624864,15.45764111,.0005662,97.3976,282.6673,43.5679,316.6016,0,U,58340,999,14935,.26143E-3,.1257E-3,0
LEMUR-2-NIMBUS2000,2024-022A,2026-07-11T01:08:58.077024,15.40997999,.000917,97.4093,42.3622,42.4609,317.7345,0,U,58899,999,13594,.3446E-3,.14151E-3,0
LEMUR-2-VALHALLA,2024-022B,2026-07-11T01:13:35.776128,15.40403861,.0009659,97.4092,42.3393,37.9200,322.2724,0,U,58900,999,13594,.2573E-3,.10335E-3,0
LEMUR-2-CAEL,2024-022E,2026-07-09T13:08:31.439904,15.41725396,.00077567,97.4076,41.7924,28.9089,331.2586,0,U,58903,999,13578,.31637064E-3,.13295E-3,0
LEMUR-2-JOHNNYTRUONG,2024-043BA,2026-07-09T09:21:06.778656,15.62219537,.00043473,97.5385,343.4983,109.9411,250.2315,0,U,59146,999,13150,.3921649E-3,.34473E-3,0
LEMUR-2-TOMATOKECHUP,2024-149D,2026-07-10T03:57:48.083904,15.36515487,.00030486,97.3795,273.2768,131.7960,228.3545,0,U,60471,999,10569,.23403615E-3,.8259E-4,0
LEMUR-2-STELLA,2024-149BT,2026-07-11T04:04:52.847040,15.12319994,.0001088,97.6738,274.7368,114.5657,245.5687,0,U,60533,999,10412,.40208E-3,.69E-4,0
LEMUR-2-MARHISYAM,2024-149BW,2026-07-10T03:59:47.651136,15.11717897,.00028183,97.6880,274.2005,77.1938,282.9606,0,U,60536,999,10395,.46249155E-3,.7816E-4,0
LEMUR-2-AHMED-ASRAR,2024-149DN,2026-07-10T04:16:27.563520,15.13238870,.00007304,97.7004,276.3951,234.1758,125.9404,0,U,60576,999,10404,.4994243E-3,.8812E-4,0
LEMUR-2-LLOYD,2024-149DP,2026-07-11T04:07:32.346624,15.09703583,.0004734,97.6747,273.3196,80.8597,279.3167,0,U,60577,999,10401,.40523E-3,.6469E-4,0
LEMUR-2-SQUIRRELCOMM,2024-149DQ,2026-07-08T00:49:41.985408,15.07397331,.00047468,97.6707,269.8822,354.4134,5.7039,0,U,60578,999,10354,.24740327E-3,.3681E-4,0
LEMUR-2-SIERRINI,2024-149DR,2026-07-10T23:44:06.029088,15.11454053,.000638,97.6838,274.6929,101.6319,258.5627,0,U,60579,999,10405,.42017E-3,.7045E-4,0
LEMUR-2-WILSON,2025-009CP,2026-07-09T04:17:57.532704,14.95266051,.00024383,97.7024,268.2582,357.7647,2.3562,0,U,62694,999,8064,.1489224E-3,.1582E-4,0
LEMUR-2-STAR-FOX,2025-009CR,2026-07-11T04:45:47.560032,15.02812178,.0002776,97.6922,273.6357,57.6752,302.4741,0,U,62696,999,8116,.26429E-3,.3478E-4,0
LEMUR-2-ARIANNA,2025-009CU,2026-07-11T04:43:35.271264,15.02812628,.0003031,97.6860,273.3895,62.8427,297.3107,0,U,62699,999,8116,.27917E-3,.3677E-4,0
LEMUR-2-ALISIA,2025-009DB,2026-07-11T04:05:03.171840,15.03137168,.0003798,97.6969,274.1792,141.7275,218.4220,0,U,62706,999,10376,.37831E-3,.5049E-4,0
